[{"OBJECT_NAME":"STARLINK-36145","OBJECT_ID":"2025-288AA","EPOCH":"2026-03-09T06:48:23.435712","MEAN_MOTION":15.27593375,"ECCENTRICITY":0.00016823,"INCLINATION":43.0036,"RA_OF_ASC_NODE":25.8836,"ARG_OF_PERICENTER":255.2331,"MEAN_ANOMALY":104.8334,"EPHEMERIS_TYPE":0,"CLASSIFICATION_TYPE":"U","NORAD_CAT_ID":66983,"ELEMENT_SET_NO":999,"REV_AT_EPOCH":1522,"BSTAR":0.0010532077,"MEAN_MOTION_DOT":0.00028845,"MEAN_MOTION_DDOT":0},{"OBJECT_NAME":"COSMOS 1862","OBJECT_ID":"1987-055A","EPOCH":"2026-03-09T22:37:02.390592","MEAN_MOTION":15.30492139,"ECCENTRICITY":0.00097484,"INCLINATION":82.4856,"RA_OF_ASC_NODE":47.1862,"ARG_OF_PERICENTER":26.6325,"MEAN_ANOMALY":333.5414,"EPHEMERIS_TYPE":0,"CLASSIFICATION_TYPE":"U","NORAD_CAT_ID":18152,"ELEMENT_SET_NO":999,"REV_AT_EPOCH":8987,"BSTAR":0.00034125048,"MEAN_MOTION_DOT":0.00010107,"MEAN_MOTION_DDOT":0}]
